{
  "type": "FeatureCollection",
  "features": [
    {
      "type": "Feature",
      "properties": {
        "norad_id": 34420,
        "name": "COSMOS 2251 DEB",
        "group": "cosmos-2251-debris",
        "lat": 17.865762248497226,
        "lon": 88.04237471986123,
        "alt_km": 741.2141747467513,
        "timestamp": "2025-12-23T16:57:12.749067+00:00",
        "meta_object_name": "COSMOS 2251 DEB",
        "meta_object_id": "1993-036RM",
        "meta_epoch": "2025-12-22T17:02:12.753312",
        "meta_mean_motion": 14.6832519,
        "meta_eccentricity": 0.01061899,
        "meta_inclination": 74.0333,
        "meta_ra_of_asc_node": 84.6741,
        "meta_arg_of_pericenter": 203.4437,
        "meta_mean_anomaly": 309.7796,
        "meta_ephemeris_type": 0,
        "meta_classification_type": "U",
        "meta_norad_cat_id": 34420,
        "meta_element_set_no": 999,
        "meta_rev_at_epoch": 89916,
        "meta_bstar": 0.00019514401,
        "meta_mean_motion_dot": 1.191e-05,
        "meta_mean_motion_ddot": 0,
        "tle_line1": "1 34420U 93036RM  25356.70986983  .00001191  00000+0  19514-3 0  9999",
        "tle_line2": "2 34420  74.0333  84.6741 0106189 203.4437 309.7796 14.68325190899166"
      },
      "geometry": {
        "type": "Point",
        "coordinates": [
          88.04237471986123,
          17.865762248497226
        ]
      }
    },
    {
      "type": "Feature",
      "properties": {
        "norad_id": 34425,
        "name": "COSMOS 2251 DEB",
        "group": "cosmos-2251-debris",
        "lat": -41.558560996835986,
        "lon": -131.78594260766778,
        "alt_km": 685.557052187507,
        "timestamp": "2025-12-23T16:57:12.749077+00:00",
        "meta_object_name": "COSMOS 2251 DEB",
        "meta_object_id": "1993-036RS",
        "meta_epoch": "2025-12-23T04:26:29.932224",
        "meta_mean_motion": 14.62180876,
        "meta_eccentricity": 0.00242111,
        "meta_inclination": 74.0191,
        "meta_ra_of_asc_node": 34.4949,
        "meta_arg_of_pericenter": 158.0137,
        "meta_mean_anomaly": 202.2074,
        "meta_ephemeris_type": 0,
        "meta_classification_type": "U",
        "meta_norad_cat_id": 34425,
        "meta_element_set_no": 999,
        "meta_rev_at_epoch": 88893,
        "meta_bstar": 0.00050305245,
        "meta_mean_motion_dot": 2.513e-05,
        "meta_mean_motion_ddot": 0,
        "tle_line1": "1 34425U 93036RS  25357.18506866  .00002513  00000+0  50305-3 0  9997",
        "tle_line2": "2 34425  74.0191  34.4949 0024211 158.0137 202.2074 14.62180876888936"
      },
      "geometry": {
        "type": "Point",
        "coordinates": [
          -131.78594260766778,
          -41.558560996835986
        ]
      }
    },
    {
      "type": "Feature",
      "properties": {
        "norad_id": 34429,
        "name": "COSMOS 2251 DEB",
        "group": "cosmos-2251-debris",
        "lat": -71.74402748007631,
        "lon": 24.74056533312651,
        "alt_km": 433.751994481323,
        "timestamp": "2025-12-23T16:57:12.749087+00:00",
        "meta_object_name": "COSMOS 2251 DEB",
        "meta_object_id": "1993-036RW",
        "meta_epoch": "2025-12-22T20:09:55.980864",
        "meta_mean_motion": 15.4576195,
        "meta_eccentricity": 0.00125011,
        "meta_inclination": 73.9678,
        "meta_ra_of_asc_node": 145.9744,
        "meta_arg_of_pericenter": 346.9165,
        "meta_mean_anomaly": 135.8075,
        "meta_ephemeris_type": 0,
        "meta_classification_type": "U",
        "meta_norad_cat_id": 34429,
        "meta_element_set_no": 999,
        "meta_rev_at_epoch": 89604,
        "meta_bstar": 0.005332713,
        "meta_mean_motion_dot": 0.00267889,
        "meta_mean_motion_ddot": 0,
        "tle_line1": "1 34429U 93036RW  25356.84023126  .00267889  00000+0  53327-2 0  9991",
        "tle_line2": "2 34429  73.9678 145.9744 0012501 346.9165 135.8075 15.45761950896040"
      },
      "geometry": {
        "type": "Point",
        "coordinates": [
          24.74056533312651,
          -71.74402748007631
        ]
      }
    },
    {
      "type": "Feature",
      "properties": {
        "norad_id": 34430,
        "name": "COSMOS 2251 DEB",
        "group": "cosmos-2251-debris",
        "lat": -16.050486565588443,
        "lon": 107.84711934749777,
        "alt_km": 802.902382214349,
        "timestamp": "2025-12-23T16:57:12.749098+00:00",
        "meta_object_name": "COSMOS 2251 DEB",
        "meta_object_id": "1993-036RX",
        "meta_epoch": "2025-12-23T04:22:02.170848",
        "meta_mean_motion": 14.39662359,
        "meta_eccentricity": 0.00608256,
        "meta_inclination": 74.0519,
        "meta_ra_of_asc_node": 284.0954,
        "meta_arg_of_pericenter": 351.3021,
        "meta_mean_anomaly": 8.7073,
        "meta_ephemeris_type": 0,
        "meta_classification_type": "U",
        "meta_norad_cat_id": 34430,
        "meta_element_set_no": 999,
        "meta_rev_at_epoch": 88105,
        "meta_bstar": 0.00042441051,
        "meta_mean_motion_dot": 1.33e-05,
        "meta_mean_motion_ddot": 0,
        "tle_line1": "1 34430U 93036RX  25357.18196957  .00001330  00000+0  42441-3 0  9997",
        "tle_line2": "2 34430  74.0519 284.0954 0060825 351.3021   8.7073 14.39662359881055"
      },
      "geometry": {
        "type": "Point",
        "coordinates": [
          107.84711934749777,
          -16.050486565588443
        ]
      }
    },
    {
      "type": "Feature",
      "properties": {
        "norad_id": 34431,
        "name": "COSMOS 2251 DEB",
        "group": "cosmos-2251-debris",
        "lat": 28.37945774835958,
        "lon": 164.22227339564614,
        "alt_km": 809.1460449677852,
        "timestamp": "2025-12-23T16:57:12.749108+00:00",
        "meta_object_name": "COSMOS 2251 DEB",
        "meta_object_id": "1993-036RY",
        "meta_epoch": "2025-12-22T20:38:58.327584",
        "meta_mean_motion": 14.28807603,
        "meta_eccentricity": 0.0067807,
        "meta_inclination": 74.0738,
        "meta_ra_of_asc_node": 156.8796,
        "meta_arg_of_pericenter": 139.8863,
        "meta_mean_anomaly": 220.7322,
        "meta_ephemeris_type": 0,
        "meta_classification_type": "U",
        "meta_norad_cat_id": 34431,
        "meta_element_set_no": 999,
        "meta_rev_at_epoch": 87287,
        "meta_bstar": 0.00065336,
        "meta_mean_motion_dot": 1.663e-05,
        "meta_mean_motion_ddot": 0,
        "tle_line1": "1 34431U 93036RY  25356.86039731  .00001663  00000+0  65336-3 0  9995",
        "tle_line2": "2 34431  74.0738 156.8796 0067807 139.8863 220.7322 14.28807603872873"
      },
      "geometry": {
        "type": "Point",
        "coordinates": [
          164.22227339564614,
          28.37945774835958
        ]
      }
    },
    {
      "type": "Feature",
      "properties": {
        "norad_id": 34432,
        "name": "COSMOS 2251 DEB",
        "group": "cosmos-2251-debris",
        "lat": 73.14396689176567,
        "lon": -170.27710405442957,
        "alt_km": 827.2385345815401,
        "timestamp": "2025-12-23T16:57:12.749119+00:00",
        "meta_object_name": "COSMOS 2251 DEB",
        "meta_object_id": "1993-036RZ",
        "meta_epoch": "2025-12-22T17:16:08.561856",
        "meta_mean_motion": 14.02946271,
        "meta_eccentricity": 0.0181626,
        "meta_inclination": 73.8281,
        "meta_ra_of_asc_node": 84.7419,
        "meta_arg_of_pericenter": 165.8591,
        "meta_mean_anomaly": 348.5505,
        "meta_ephemeris_type": 0,
        "meta_classification_type": "U",
        "meta_norad_cat_id": 34432,
        "meta_element_set_no": 999,
        "meta_rev_at_epoch": 85824,
        "meta_bstar": 0.0009096832,
        "meta_mean_motion_dot": 1.607e-05,
        "meta_mean_motion_ddot": 0,
        "tle_line1": "1 34432U 93036RZ  25356.71954354  .00001607  00000+0  90968-3 0  9994",
        "tle_line2": "2 34432  73.8281  84.7419 0181626 165.8591 348.5505 14.02946271858242"
      },
      "geometry": {
        "type": "Point",
        "coordinates": [
          -170.27710405442957,
          73.14396689176567
        ]
      }
    },
    {
      "type": "Feature",
      "properties": {
        "norad_id": 34433,
        "name": "COSMOS 2251 DEB",
        "group": "cosmos-2251-debris",
        "lat": 27.359168534069656,
        "lon": -53.01660819216418,
        "alt_km": 901.7731281998549,
        "timestamp": "2025-12-23T16:57:12.749129+00:00",
        "meta_object_name": "COSMOS 2251 DEB",
        "meta_object_id": "1993-036SA",
        "meta_epoch": "2025-12-22T16:26:02.164992",
        "meta_mean_motion": 14.12893248,
        "meta_eccentricity": 0.01527957,
        "meta_inclination": 74.0095,
        "meta_ra_of_asc_node": 137.3252,
        "meta_arg_of_pericenter": 273.2963,
        "meta_mean_anomaly": 85.0708,
        "meta_ephemeris_type": 0,
        "meta_classification_type": "U",
        "meta_norad_cat_id": 34433,
        "meta_element_set_no": 999,
        "meta_rev_at_epoch": 86090,
        "meta_bstar": 0.00096242284,
        "meta_mean_motion_dot": 1.975e-05,
        "meta_mean_motion_ddot": 0,
        "tle_line1": "1 34433U 93036SA  25356.68474728  .00001975  00000+0  96242-3 0  9992",
        "tle_line2": "2 34433  74.0095 137.3252 0152795 273.2963  85.0708 14.12893248860901"
      },
      "geometry": {
        "type": "Point",
        "coordinates": [
          -53.01660819216418,
          27.359168534069656
        ]
      }
    }
  ]
}